0 SDS-1
1 33497U 09002F   13282.42494002  .00000549  00000-0  10266-3 0  1547
2 33497 098.1336 033.2278 0002277 162.3653 242.9216 14.68753346252335
0 SDS-1
1 33497U 09002F   13283.99366907  .00000613  00000-0  11353-3 0  1553
2 33497 098.1339 034.7882 0002377 158.6235 256.3637 14.68754781252565
0 SDS-1
1 33497U 09002F   13285.35582177  .00000476  00000-0  90153-4 0  1568
2 33497 098.1342 036.1432 0002467 155.7934 257.2843 14.68756366252762
0 SDS-1
1 33497U 09002F   13286.37542539  .00000513  00000-0  96500-4 0  1574
2 33497 098.1344 037.1575 0002521 153.6970 247.3278 14.68757383252910
0 SDS-1
1 33497U 09002F   13287.39715411  .00000597  00000-0  11082-3 0  1582
2 33497 098.1346 038.1740 0002562 151.7329 248.4728 14.68758733253068
0 SDS-1
1 33497U 09002F   13288.84138245  .00000739  00000-0  13528-3 0  1593
2 33497 098.1348 039.6109 0002633 148.8408 323.1974 14.68761323253286
0 SDS-1
1 33497U 09002F   13289.98880365  .00000688  00000-0  12646-3 0  1601
2 33497 098.1349 040.7526 0002681 146.4713 268.9690 14.68763748253452
0 SDS-1
1 33497U 09002F   13291.07818844  .00000708  00000-0  12984-3 0  1616
2 33497 098.1349 041.8367 0002730 144.1338 268.0332 14.68765324253614
0 SDS-1
1 33497U 09002F   13292.09860752  .00000754  00000-0  13781-3 0  1622
2 33497 098.1348 042.8520 0002761 142.1400 262.3180 14.68766379253762
0 SDS-1
1 33497U 09002F   13293.39290459  .00000814  00000-0  14812-3 0  1631
2 33497 098.1347 044.1397 0002787 139.7757 264.2560 14.68769027253950
0 SDS-1
1 33497U 09002F   13294.41461722  .00000774  00000-0  14122-3 0  1648
2 33497 098.1346 045.1563 0002828 137.6027 265.5681 14.68771002254100
0 SDS-1
1 33497U 09002F   13295.85825888  .00000831  00000-0  15098-3 0  1652
2 33497 098.1347 046.5927 0002863 134.9765 336.9862 14.68773169254311
